{
  "norad_id": 65663,
  "name": "STARLINK-35190",
  "history": [
    {
      "epoch": "2026-03-28T16:50:23.584704Z",
      "apogee_km": 550.6769396391783,
      "perigee_km": 548.3200194963201,
      "latitude_deg": -6.381480017286675e-05,
      "longitude_deg": 54.105913533710755,
      "height_km": 552.5576306960666,
      "semi_major_axis_km": 6927.635479567749,
      "eccentricity": 0.00017011,
      "inclination_deg": 97.6019,
      "raan_deg": 132.8225,
      "arg_perigee_deg": 89.8383,
      "mean_anomaly_deg": 270.3038,
      "mean_motion_rev_day": 15.05654132
    },
    {
      "epoch": "2026-03-29T02:24:36.121248Z",
      "apogee_km": 550.874565875456,
      "perigee_km": 548.1866308472909,
      "latitude_deg": 3.0136623491848935e-06,
      "longitude_deg": -89.4464630570517,
      "height_km": 552.6210840851138,
      "semi_major_axis_km": 6927.667598361373,
      "eccentricity": 0.000194,
      "inclination_deg": 97.6018,
      "raan_deg": 133.2154,
      "arg_perigee_deg": 91.2124,
      "mean_anomaly_deg": 268.9325,
      "mean_motion_rev_day": 15.05643661
    },
    {
      "epoch": "2026-03-30T02:20:07.115712Z",
      "apogee_km": 550.7899644067584,
      "perigee_km": 548.3112377830867,
      "latitude_deg": 2.9552767804252212e-05,
      "longitude_deg": -88.32568579046585,
      "height_km": 552.6225701843814,
      "semi_major_axis_km": 6927.687601094922,
      "eccentricity": 0.0001789,
      "inclination_deg": 97.601,
      "raan_deg": 134.1979,
      "arg_perigee_deg": 90.4462,
      "mean_anomaly_deg": 269.697,
      "mean_motion_rev_day": 15.0563714
    },
    {
      "epoch": "2026-03-30T02:20:07.116576Z",
      "apogee_km": 550.7897565761305,
      "perigee_km": 548.3114456137137,
      "latitude_deg": 3.2967243253474585e-05,
      "longitude_deg": -88.32568985348192,
      "height_km": 552.622568567312,
      "semi_major_axis_km": 6927.687601094922,
      "eccentricity": 0.00017887,
      "inclination_deg": 97.601,
      "raan_deg": 134.1979,
      "arg_perigee_deg": 90.4462,
      "mean_anomaly_deg": 269.697,
      "mean_motion_rev_day": 15.0563714
    },
    {
      "epoch": "2026-03-30T13:30:01.350432Z",
      "apogee_km": 550.5892619736405,
      "perigee_km": 548.4707813984096,
      "latitude_deg": 1.8128015007290153e-05,
      "longitude_deg": 104.1980053290183,
      "height_km": 552.6303030083653,
      "semi_major_axis_km": 6927.667021686025,
      "eccentricity": 0.0001529,
      "inclination_deg": 97.6007,
      "raan_deg": 134.6561,
      "arg_perigee_deg": 92.0284,
      "mean_anomaly_deg": 268.1118,
      "mean_motion_rev_day": 15.05643849
    },
    {
      "epoch": "2026-03-30T15:05:43.471104Z",
      "apogee_km": 550.7196365262907,
      "perigee_km": 548.3710136644368,
      "latitude_deg": 7.027217281711964e-06,
      "longitude_deg": 80.27269837996329,
      "height_km": 552.6262973580025,
      "semi_major_axis_km": 6927.682325095363,
      "eccentricity": 0.00016951,
      "inclination_deg": 97.6009,
      "raan_deg": 134.7218,
      "arg_perigee_deg": 90.9018,
      "mean_anomaly_deg": 269.2403,
      "mean_motion_rev_day": 15.0563886
    },
    {
      "epoch": "2026-03-31T08:38:25.483488Z",
      "apogee_km": 550.559090164028,
      "perigee_km": 548.457242620545,
      "latitude_deg": -4.46139434206072e-05,
      "longitude_deg": 177.09730687955167,
      "height_km": 552.6084855199545,
      "semi_major_axis_km": 6927.645166392286,
      "eccentricity": 0.0001517,
      "inclination_deg": 97.6004,
      "raan_deg": 135.442,
      "arg_perigee_deg": 92.0439,
      "mean_anomaly_deg": 268.0961,
      "mean_motion_rev_day": 15.05650974
    },
    {
      "epoch": "2026-04-01T16:32:24.876384Z",
      "apogee_km": 550.4595789716677,
      "perigee_km": 548.4852102941977,
      "latitude_deg": 1.4278687348611031e-05,
      "longitude_deg": 58.59945088993821,
      "height_km": 552.6540786962788,
      "semi_major_axis_km": 6927.609394632933,
      "eccentricity": 0.0001425,
      "inclination_deg": 97.6012,
      "raan_deg": 136.7517,
      "arg_perigee_deg": 96.9045,
      "mean_anomaly_deg": 263.2344,
      "mean_motion_rev_day": 15.05662636
    },
    {
      "epoch": "2026-04-02T13:16:30.330912Z",
      "apogee_km": 550.0925461668621,
      "perigee_km": 548.8374032410866,
      "latitude_deg": 7.424846835903345e-05,
      "longitude_deg": 107.57636653116785,
      "height_km": 552.3734954064726,
      "semi_major_axis_km": 6927.6019747039745,
      "eccentricity": 9.059e-05,
      "inclination_deg": 97.6016,
      "raan_deg": 137.6029,
      "arg_perigee_deg": 75.6732,
      "mean_anomaly_deg": 284.4596,
      "mean_motion_rev_day": 15.05665055
    },
    {
      "epoch": "2026-04-02T21:15:00.721728Z",
      "apogee_km": 550.4781723152164,
      "perigee_km": 548.5143268416268,
      "latitude_deg": -5.702372892892232e-05,
      "longitude_deg": -12.049670284506194,
      "height_km": 552.6425423136737,
      "semi_major_axis_km": 6927.633249578422,
      "eccentricity": 0.00014174,
      "inclination_deg": 97.6011,
      "raan_deg": 137.931,
      "arg_perigee_deg": 94.8655,
      "mean_anomaly_deg": 265.2733,
      "mean_motion_rev_day": 15.05654859
    },
    {
      "epoch": "2026-04-03T16:23:25.067328Z",
      "apogee_km": 550.2999248909118,
      "perigee_km": 548.7453580673637,
      "latitude_deg": 2.587100005063957e-05,
      "longitude_deg": 60.850222930940056,
      "height_km": 552.4674579628416,
      "semi_major_axis_km": 6927.6596414791375,
      "eccentricity": 0.0001122,
      "inclination_deg": 97.6016,
      "raan_deg": 138.7184,
      "arg_perigee_deg": 81.2224,
      "mean_anomaly_deg": 278.913,
      "mean_motion_rev_day": 15.05646255
    },
    {
      "epoch": "2026-04-04T16:18:54.536832Z",
      "apogee_km": 550.1053643636988,
      "perigee_km": 548.8334558268043,
      "latitude_deg": -5.8280158314531024e-05,
      "longitude_deg": 61.97658504696099,
      "height_km": 552.5840431468966,
      "semi_major_axis_km": 6927.606410095251,
      "eccentricity": 9.18e-05,
      "inclination_deg": 97.6027,
      "raan_deg": 139.7001,
      "arg_perigee_deg": 94.5861,
      "mean_anomaly_deg": 265.547,
      "mean_motion_rev_day": 15.05663609
    },
    {
      "epoch": "2026-04-05T13:02:59.772768Z",
      "apogee_km": 549.9732541363655,
      "perigee_km": 548.9435363568164,
      "latitude_deg": 5.732372465195127e-05,
      "longitude_deg": 110.95350454784935,
      "height_km": 552.7704818941515,
      "semi_major_axis_km": 6927.595395246591,
      "eccentricity": 7.432e-05,
      "inclination_deg": 97.6028,
      "raan_deg": 140.5504,
      "arg_perigee_deg": 118.7771,
      "mean_anomaly_deg": 241.3531,
      "mean_motion_rev_day": 15.056672
    },
    {
      "epoch": "2026-04-05T16:14:23.938080Z",
      "apogee_km": 550.2713127527786,
      "perigee_km": 548.6793474393216,
      "latitude_deg": 2.1430146991388682e-05,
      "longitude_deg": 63.103509743767425,
      "height_km": 552.7484067403468,
      "semi_major_axis_km": 6927.61233009605,
      "eccentricity": 0.0001149,
      "inclination_deg": 97.6031,
      "raan_deg": 140.6821,
      "arg_perigee_deg": 105.2671,
      "mean_anomaly_deg": 254.8683,
      "mean_motion_rev_day": 15.05661679
    },
    {
      "epoch": "2026-04-06T01:48:35.809344Z",
      "apogee_km": 550.2634388122433,
      "perigee_km": 548.6642714308482,
      "latitude_deg": 3.6197787728856286e-06,
      "longitude_deg": -80.44357672389326,
      "height_km": 552.517680694521,
      "semi_major_axis_km": 6927.6008551215455,
      "eccentricity": 0.00011542,
      "inclination_deg": 97.6025,
      "raan_deg": 141.0775,
      "arg_perigee_deg": 89.3152,
      "mean_anomaly_deg": 270.8207,
      "mean_motion_rev_day": 15.0566542
    },
    {
      "epoch": "2026-04-07T09:42:35.622144Z",
      "apogee_km": 550.0523990893826,
      "perigee_km": 548.9230577061599,
      "latitude_deg": 7.002332814236901e-05,
      "longitude_deg": 161.05700666660306,
      "height_km": 552.6631763963866,
      "semi_major_axis_km": 6927.624728397771,
      "eccentricity": 8.151e-05,
      "inclination_deg": 97.6041,
      "raan_deg": 142.3874,
      "arg_perigee_deg": 101.3918,
      "mean_anomaly_deg": 258.7401,
      "mean_motion_rev_day": 15.05657637
    },
    {
      "epoch": "2026-04-08T14:25:11.495136Z",
      "apogee_km": 549.8003070388577,
      "perigee_km": 549.186934623689,
      "latitude_deg": 5.790035916127905e-05,
      "longitude_deg": 90.40665752029504,
      "height_km": 552.5514344140403,
      "semi_major_axis_km": 6927.630620831273,
      "eccentricity": 4.427e-05,
      "inclination_deg": 97.6044,
      "raan_deg": 143.5656,
      "arg_perigee_deg": 88.762,
      "mean_anomaly_deg": 271.3658,
      "mean_motion_rev_day": 15.05655716
    },
    {
      "epoch": "2026-04-09T20:43:29.780832Z",
      "apogee_km": 550.1414727999354,
      "perigee_km": 548.8750992416499,
      "latitude_deg": -4.968214748087274e-05,
      "longitude_deg": -4.168907724705693,
      "height_km": 552.6943276485498,
      "semi_major_axis_km": 6927.645286020792,
      "eccentricity": 9.14e-05,
      "inclination_deg": 97.6044,
      "raan_deg": 144.8108,
      "arg_perigee_deg": 101.1349,
      "mean_anomaly_deg": 258.998,
      "mean_motion_rev_day": 15.05650935
    },
    {
      "epoch": "2026-04-10T09:29:05.731008Z",
      "apogee_km": 550.1769694380919,
      "perigee_km": 548.8080698450112,
      "latitude_deg": 4.247714350014967e-05,
      "longitude_deg": 164.4316522882058,
      "height_km": 552.6624525863058,
      "semi_major_axis_km": 6927.629519641551,
      "eccentricity": 9.88e-05,
      "inclination_deg": 97.6044,
      "raan_deg": 145.3352,
      "arg_perigee_deg": 98.9354,
      "mean_anomaly_deg": 261.1985,
      "mean_motion_rev_day": 15.05656075
    }
  ]
}